[{"OBJECT_NAME":"AEROCUBE 4.5A","OBJECT_ID":"2012-048K","EPOCH":"2026-03-09T23:30:53.651232","MEAN_MOTION":15.62097136,"ECCENTRICITY":0.00407508,"INCLINATION":64.6384,"RA_OF_ASC_NODE":19.0525,"ARG_OF_PERICENTER":211.9552,"MEAN_ANOMALY":147.9122,"EPHEMERIS_TYPE":0,"CLASSIFICATION_TYPE":"U","NORAD_CAT_ID":38767,"ELEMENT_SET_NO":999,"REV_AT_EPOCH":35703,"BSTAR":0.0010922172,"MEAN_MOTION_DOT":0.00101362,"MEAN_MOTION_DDOT":0},{"OBJECT_NAME":"STARLINK-11652 [DTC]","OBJECT_ID":"2025-057J","EPOCH":"2026-03-09T22:00:07.605216","MEAN_MOTION":15.70836302,"ECCENTRICITY":0.00017615,"INCLINATION":42.9998,"RA_OF_ASC_NODE":263.1328,"ARG_OF_PERICENTER":263.6068,"MEAN_ANOMALY":96.4599,"EPHEMERIS_TYPE":0,"CLASSIFICATION_TYPE":"U","NORAD_CAT_ID":63315,"ELEMENT_SET_NO":999,"REV_AT_EPOCH":5724,"BSTAR":0.0009086623,"MEAN_MOTION_DOT":0.00117794,"MEAN_MOTION_DDOT":0}]
